     2.01           GLONASS NAV DATA                        RINEX VERSION / TYPE
CCRINEXG V1.4 UX    CDDIS               25-MAY-24 23:33     PGM / RUN BY / DATE 
IGS BROADCAST EPHEMERIS FILE                                COMMENT             
teqc  2020Oct7      UNAVCO Archive Ops  20240525  4:20:     COMMENT             
  2024     5    24   -0.279396772385D-08                    CORR TO SYSTEM TIME 
    18                                                      LEAP SECONDS        
                                                            END OF HEADER       
 2 24  5 24 19 15  0.0-0.230595469475D-04 0.000000000000D+00 0.684000000000D+05
    0.123824394531D+05-0.736122131348D+00-0.186264514923D-08 0.000000000000D+00
   -0.170238247070D+05 0.183868598938D+01-0.372529029846D-08-0.400000000000D+01
    0.145002099609D+05 0.279093742371D+01 0.931322574616D-09 0.000000000000D+00
 3 24  5 24 19 15  0.0 0.100787729025D-03 0.909494701773D-12 0.685200000000D+05
    0.633232373047D+04-0.879898071289D-01-0.931322574616D-09 0.000000000000D+00
   -0.246363525391D+05-0.349771499634D+00-0.279396772385D-08 0.500000000000D+01
   -0.221097949219D+04 0.355884075165D+01 0.279396772385D-08 0.000000000000D+00
 4 24  5 24 19 15  0.0 0.237924046814D-03 0.181898940355D-11 0.701100000000D+05
   -0.262418408203D+04 0.581981658936D+00-0.000000000000D+00 0.000000000000D+00
   -0.185059042969D+05-0.231303977966D+01-0.931322574616D-09 0.600000000000D+01
   -0.173304409180D+05 0.237624740601D+01 0.279396772385D-08 0.000000000000D+00
 5 24  5 24 19 15  0.0 0.132003799081D-03 0.909494701773D-12 0.684000000000D+05
   -0.103913911133D+05 0.957508087158D+00 0.931322574616D-09 0.000000000000D+00
   -0.259250341797D+04-0.302628231049D+01 0.186264514923D-08 0.100000000000D+01
   -0.231352250977D+05-0.926389694214D-01 0.186264514923D-08 0.000000000000D+00
 6 24  5 24 19 15  0.0-0.164664350450D-03-0.909494701773D-12 0.684000000000D+05
   -0.115138540039D+05 0.602865219116D+00 0.186264514923D-08 0.000000000000D+00
    0.183934418945D+05-0.173797225952D+01 0.465661287308D-08-0.400000000000D+01
   -0.134048203125D+05-0.290509986877D+01-0.931322574616D-09 0.000000000000D+00
 7 24  5 24 19 15  0.0 0.831112265587D-04 0.000000000000D+00 0.684000000000D+05
   -0.587412890625D+04 0.454769134521D-01 0.186264514923D-08 0.000000000000D+00
    0.245975209961D+05 0.464403152466D+00 0.279396772385D-08 0.500000000000D+01
    0.319187695312D+04-0.354855823517D+01-0.372529029846D-08 0.000000000000D+00
 8 24  5 24 19 15  0.0-0.411458313465D-05-0.000000000000D+00 0.690000000000D+05
    0.307690869141D+04-0.579312324524D+00 0.000000000000D+00 0.000000000000D+00
    0.182708706055D+05 0.232716751099D+01 0.000000000000D+00 0.600000000000D+01
    0.175811191406D+05-0.232804298401D+01-0.372529029846D-08 0.000000000000D+00
 9 24  5 24 19 15  0.0 0.188420526683D-03 0.272848410532D-11 0.684000000000D+05
   -0.112350795898D+05-0.218658542633D+01 0.931322574616D-09 0.000000000000D+00
    0.452515673828D+04-0.215271186829D+01-0.279396772385D-08-0.200000000000D+01
    0.224603867188D+05-0.668514251709D+00-0.931322574616D-09 0.000000000000D+00
10 24  5 24 19 15  0.0-0.167463906109D-03-0.454747350886D-11 0.684000000000D+05
    0.106822509766D+04-0.190709686279D+01 0.000000000000D+00 0.000000000000D+00
    0.151840156250D+05-0.205375671387D+01-0.000000000000D+00-0.700000000000D+01
    0.204406665039D+05 0.163175296783D+01-0.279396772385D-08 0.000000000000D+00
11 24  5 24 19 15  0.0 0.236500054598D-04-0.909494701773D-12 0.684000000000D+05
    0.147517392578D+05-0.505746841431D+00-0.931322574616D-09 0.000000000000D+00
    0.197696518555D+05-0.755138397217D+00 0.279396772385D-08 0.000000000000D+00
    0.654989697266D+04 0.342280101776D+01-0.279396772385D-08 0.000000000000D+00
12 24  5 24 19 15  0.0 0.405060127377D-04 0.000000000000D+00 0.684000000000D+05
    0.190742255859D+05 0.128569316864D+01-0.931322574616D-09 0.000000000000D+00
    0.112545483398D+05 0.116877269745D+01 0.465661287308D-08-0.100000000000D+01
   -0.126198857422D+05 0.297999286652D+01-0.931322574616D-09 0.000000000000D+00
13 24  5 24 19 15  0.0-0.476799905300D-04-0.000000000000D+00 0.690600000000D+05
    0.128938793945D+05 0.212605476379D+01-0.931322574616D-09 0.000000000000D+00
   -0.187511767578D+04 0.211777019501D+01 0.279396772385D-08-0.200000000000D+01
   -0.219393232422D+05 0.106902885437D+01 0.931322574616D-09 0.000000000000D+00
14 24  5 24 19 15  0.0 0.264970585704D-04-0.000000000000D+00 0.684000000000D+05
   -0.295297558594D+04 0.178155994415D+01-0.000000000000D+00 0.000000000000D+00
   -0.164767875977D+05 0.194331264496D+01-0.000000000000D+00-0.700000000000D+01
   -0.192237749023D+05-0.193977451324D+01 0.279396772385D-08 0.000000000000D+00
15 24  5 24 19 15  0.0 0.795032829046D-04-0.909494701773D-12 0.684000000000D+05
   -0.154570366211D+05 0.361510276794D+00 0.000000000000D+00 0.000000000000D+00
   -0.196792246094D+05 0.586803436279D+00-0.279396772385D-08 0.000000000000D+00
   -0.490165917969D+04-0.348116302490D+01 0.279396772385D-08 0.000000000000D+00
16 24  5 24 19 15  0.0 0.258628278971D-04 0.000000000000D+00 0.684000000000D+05
   -0.190960117188D+05-0.129138469696D+01 0.931322574616D-09 0.000000000000D+00
   -0.113500795898D+05-0.113506126404D+01-0.372529029846D-08-0.100000000000D+01
    0.125152929688D+05-0.300603866577D+01 0.931322574616D-09 0.000000000000D+00
17 24  5 24 19 15  0.0 0.897124409676D-04 0.272848410532D-11 0.684000000000D+05
    0.819633935547D+04 0.279760360718D+01-0.186264514923D-08 0.000000000000D+00
   -0.117786376953D+05-0.729861259460D+00-0.372529029846D-08 0.400000000000D+01
    0.210793359375D+05-0.149918270111D+01 0.000000000000D+00 0.000000000000D+00
18 24  5 24 19 15  0.0 0.143662095070D-03 0.181898940355D-11 0.684000000000D+05
   -0.937779443359D+04 0.299235725403D+01 0.000000000000D+00 0.000000000000D+00
   -0.826228955078D+04-0.580338478088D+00-0.465661287308D-08-0.300000000000D+01
    0.222352500000D+05 0.105122852325D+01 0.000000000000D+00 0.000000000000D+00
19 24  5 24 19 15  0.0-0.277803279459D-03-0.909494701773D-12 0.684000000000D+05
   -0.215541982422D+05 0.185432147980D+01 0.931322574616D-09 0.000000000000D+00
   -0.214194140625D+04-0.136989593506D+00-0.279396772385D-08 0.300000000000D+01
    0.134673276367D+05 0.294404792786D+01 0.000000000000D+00 0.000000000000D+00
20 24  5 24 19 15  0.0-0.113350339234D-03-0.000000000000D+00 0.684000000000D+05
   -0.232120395508D+05-0.947598457336D+00 0.279396772385D-08 0.000000000000D+00
    0.756069677734D+04 0.409686088562D+00 0.931322574616D-09 0.200000000000D+01
   -0.732322509766D+04 0.342929172516D+01-0.000000000000D+00 0.000000000000D+00
21 24  5 24 19 15  0.0-0.103518366814D-03-0.272848410532D-11 0.684000000000D+05
   -0.856945996094D+04-0.279162788391D+01 0.186264514923D-08 0.000000000000D+00
    0.116504453125D+05 0.714101791382D+00 0.465661287308D-08 0.400000000000D+01
   -0.210247690430D+05 0.153160476685D+01-0.000000000000D+00 0.000000000000D+00
22 24  5 24 19 15  0.0 0.109548680484D-03-0.363797880709D-11 0.684000000000D+05
    0.104790126953D+05-0.292857170105D+01-0.000000000000D+00 0.000000000000D+00
    0.845014208984D+04 0.495788574219D+00 0.465661287308D-08-0.300000000000D+01
   -0.216476293945D+05-0.122161769867D+01-0.000000000000D+00 0.000000000000D+00
23 24  5 24 19 15  0.0-0.121814198792D-03-0.909494701773D-12 0.684000000000D+05
    0.232038759766D+05-0.146577453613D+01-0.186264514923D-08 0.000000000000D+00
    0.353374023438D+02 0.884685516357D-01 0.279396772385D-08 0.300000000000D+01
   -0.106130893555D+05-0.320793628693D+01 0.000000000000D+00 0.000000000000D+00
24 24  5 24 19 15  0.0-0.571180135012D-04-0.181898940355D-11 0.684000000000D+05
    0.225825346680D+05 0.100377273560D+01-0.279396772385D-08 0.000000000000D+00
   -0.892765820312D+04-0.395129203796D+00-0.931322574616D-09 0.200000000000D+01
    0.779559228516D+04-0.336563110352D+01 0.000000000000D+00 0.000000000000D+00
 1 24  5 24 19 45  0.0 0.863438472152D-04 0.909494701773D-12 0.702000000000D+05
    0.102089687500D+05-0.387067794800D+00-0.931322574616D-09 0.000000000000D+00
    0.525458837891D+04 0.309411811829D+01-0.931322574616D-09 0.100000000000D+01
    0.227842998047D+05-0.538538932800D+00-0.186264514923D-08 0.000000000000D+00
 2 24  5 24 19 45  0.0-0.230586156249D-04 0.000000000000D+00 0.702000000000D+05
    0.111896181641D+05-0.552728652954D+00-0.186264514923D-08 0.000000000000D+00
   -0.130754003906D+05 0.251835823059D+01-0.279396772385D-08-0.400000000000D+01
    0.189023950195D+05 0.206885814667D+01 0.000000000000D+00 0.000000000000D+00
 3 24  5 24 19 45  0.0 0.100789591670D-03 0.909494701773D-12 0.702000000000D+05
    0.597145458984D+04-0.272275924683D+00-0.186264514923D-08 0.000000000000D+00
   -0.244803530273D+05 0.530060768127D+00-0.372529029846D-08 0.500000000000D+01
    0.419766015625D+04 0.351580429077D+01 0.186264514923D-08 0.000000000000D+00
 4 24  5 24 19 45  0.0 0.237926840782D-03 0.181898940355D-11 0.702000000000D+05
   -0.200940576172D+04 0.123936653137D+00-0.931322574616D-09 0.000000000000D+00
   -0.221665175781D+05-0.171369171143D+01-0.186264514923D-08 0.600000000000D+01
   -0.124372836914D+05 0.302514362335D+01 0.279396772385D-08 0.000000000000D+00
 5 24  5 24 19 45  0.0 0.132004730403D-03 0.909494701773D-12 0.702000000000D+05
   -0.908982617188D+04 0.480895042419D+00 0.931322574616D-09 0.000000000000D+00
   -0.809527929688D+04-0.303602695465D+01 0.000000000000D+00 0.100000000000D+01
   -0.224042558594D+05 0.899486541748D+00 0.279396772385D-08 0.000000000000D+00
 6 24  5 24 19 45  0.0-0.164667144418D-03-0.909494701773D-12 0.702600000000D+05
   -0.105593325195D+05 0.421674728394D+00 0.279396772385D-08 0.000000000000D+00
    0.146104370117D+05-0.243610095978D+01 0.372529029846D-08-0.400000000000D+01
   -0.180481606445D+05-0.222070980072D+01-0.000000000000D+00 0.000000000000D+00
